{
    "links": {
        "self": "http://www.neowsapp.com/rest/v1/neo/3267565?api_key=iIulBulltgU6a56xZRHN4H3l9WmuAYTsLGpBGhQ2"
    },
    "id": "3267565",
    "neo_reference_id": "3267565",
    "name": "(2005 CU61)",
    "designation": "2005 CU61",
    "nasa_jpl_url": "http://ssd.jpl.nasa.gov/sbdb.cgi?sstr=3267565",
    "absolute_magnitude_h": 22.573,
    "estimated_diameter": {
        "kilometers": {
            "estimated_diameter_min": 0.0812746254,
            "estimated_diameter_max": 0.1817355873
        },
        "meters": {
            "estimated_diameter_min": 81.2746254234,
            "estimated_diameter_max": 181.7355872926
        },
        "miles": {
            "estimated_diameter_min": 0.0505016953,
            "estimated_diameter_max": 0.1129252236
        },
        "feet": {
            "estimated_diameter_min": 266.6490420742,
            "estimated_diameter_max": 596.2453842132
        }
    },
    "is_potentially_hazardous_asteroid": false,
    "close_approach_data": [
        {
            "close_approach_date": "2005-02-04",
            "close_approach_date_full": "2005-Feb-04 04:05",
            "epoch_date_close_approach": 1107489900000,
            "relative_velocity": {
                "kilometers_per_second": "22.2181599471",
                "kilometers_per_hour": "79985.3758094264",
                "miles_per_hour": "49699.801985585"
            },
            "miss_distance": {
                "astronomical": "0.0437544273",
                "lunar": "17.0204722197",
                "kilometers": "6545569.127149851",
                "miles": "4067228.0557399038"
            },
            "orbiting_body": "Earth"
        }
    ],
    "orbital_data": {
        "orbit_id": "9",
        "orbit_determination_date": "2017-04-06 09:11:26",
        "first_observation_date": "2005-02-14",
        "last_observation_date": "2005-02-19",
        "data_arc_in_days": 5,
        "observations_used": 18,
        "orbit_uncertainty": "9",
        "minimum_orbit_intersection": ".0149177",
        "jupiter_tisserand_invariant": "3.767",
        "epoch_osculation": "2453416.5",
        "eccentricity": ".7299330118915809",
        "semi_major_axis": "1.746907227669663",
        "inclination": "5.627701040936384",
        "ascending_node_longitude": "308.6754078233844",
        "orbital_period": "843.3409511193594",
        "perihelion_distance": ".4717819734815743",
        "perihelion_argument": "85.27406569240711",
        "aphelion_distance": "3.022032481857752",
        "perihelion_time": "2453359.069125749732",
        "mean_anomaly": "24.51572487100807",
        "mean_motion": ".4268736144286306",
        "equinox": "J2000",
        "orbit_class": {
            "orbit_class_type": "APO",
            "orbit_class_description": "Near-Earth asteroid orbits which cross the Earth’s orbit similar to that of 1862 Apollo",
            "orbit_class_range": "a (semi-major axis) > 1.0 AU; q (perihelion) < 1.017 AU"
        }
    },
    "is_sentry_object": false
}